# From MPEC 2022-S20
C/1995 O1 (Hale-Bopp),e,89.6374,281.9490,130.4064,179.6484,0.0004093,0.99492717,0.0000,03/30.4354/1997,2000,g -2.0,4.0
# From NK 1615
P/1996 R2 (Lagerkvist),e,2.5990,40.0389,333.5079,3.771802,0.1345491,0.31411501,334.4703,12/08.0/2025,2000,g 11.5,4.0
# From MPC 73460
C/1997 BA6 (Spacewatch),e,72.6884,317.7718,286.0929,2946,0.0000062,0.99882357,0.0000,11/15.5151/1999,2000,g 10.0,2.0
# From MPC 75703
P/1998 VS24 (LINEAR),e,5.0300,159.0335,244.9296,4.519716,0.1025740,0.24346687,294.4421,12/08.0/2025,2000,g 13.0,2.0
# From MPC 73461
C/1999 F1 (Catalina),e,91.8540,19.9480,255.3235,20618,0.0000003,0.99971809,0.0000,01/31.2345/2002,2000,g  9.5,2.0
# From MPC186628
C/1999 J2 (Skiff),h,04/09.0937/2000,86.4051,50.2818,126.9741,1.000784,7.073144,2000,2.0,4.0
# From NK 731
P/1999 RO28 (LONEOS),e,7.5672,137.8401,231.3579,3.425027,0.1554920,0.67216681,6.0167,12/08.0/2025,2000,g 20.0,2.0
# From MPC 43758
C/1999 S2 (McNaught-Watson),h,11/07.4845/1997,65.6227,74.4449,223.4800,1.002364,6.504047,2000,2.0,4.0
# From MPC 75704
P/1999 XN120 (Catalina),e,5.0301,285.2380,161.4998,4.188894,0.1149622,0.21266038,358.5016,12/08.0/2025,2000,g 13.5,2.0
# From NK 744
P/2000 R2 (LINEAR),e,11.6792,160.2682,176.5824,3.468393,0.1525849,0.53055281,0.8701,12/08.0/2025,2000,g 18.0,4.0
# From MPC 43019
P/2001 H5 (NEAT),e,8.3727,328.6834,224.5794,6.093506,0.0655244,0.59958756,243.4571,12/08.0/2025,2000,g 12.0,4.0
# From MPC 46619
C/2001 M10 (NEAT),e,27.9950,293.9611,5.6143,26.72536,0.0071338,0.79928261,63.8727,12/08.0/2025,2000,g  8.0,4.0
# From MPEC 2015-N31
C/2002 A1 (LINEAR),e,14.0805,81.0456,18.7140,16.04012,0.0153424,0.70978641,134.6139,12/08.0/2025,2000,g 12.5,2.0
# From MPC 89006
C/2002 A2 (LINEAR),e,14.0345,81.0124,19.1092,15.89517,0.0155527,0.70745745,136.3501,12/08.0/2025,2000,g 11.0,2.0
# From MPC 45962
C/2002 B1 (LINEAR),e,51.0286,58.2711,76.0780,9.874858,0.0317620,0.77048492,274.7677,12/08.0/2025,2000,g 11.5,4.0
# From MPC188408
C/2002 CE10 (LINEAR),e,145.3765,147.5586,126.2356,9.765884,0.0322951,0.78939462,264.7676,12/08.0/2025,2000,g 13.0,2.0
# From MPEC 2023-UR6
P/2002 EJ57 (LINEAR),e,4.9908,330.2206,167.2945,6.454591,0.0601037,0.59414270,163.8839,12/08.0/2025,2000,g 12.5,4.0
# From MPEC 2015-N31
C/2002 L9 (NEAT),h,04/03.1859/2004,68.2225,110.4979,231.5862,1.000537,7.073181,2000,8.5,2.0
# From MPC 75007
C/2002 VQ94 (LINEAR),e,70.6266,35.0606,99.8112,187.3866,0.0003842,0.96397218,2.7812,12/08.0/2025,2000,g  9.5,2.0
# From MPC186628
C/2003 A2 (Gleason),e,8.0710,154.4649,346.5335,7488,0.0000015,0.99848276,0.0000,11/07.9866/2003,2000,g  3.5,4.0
# From MPC 51182
C/2003 E1 (NEAT),e,33.4710,137.1135,103.9332,13.77372,0.0192809,0.76197478,154.1246,12/08.0/2025,2000,g 12.5,2.0
# From MPC 50354
P/2003 F2 (NEAT),e,11.5912,358.9574,193.0854,6.552435,0.0587625,0.53660957,130.3887,12/08.0/2025,2000,g 16.5,2.0
# From unp
P/2003 L1 (Scotti),e,9.0414,225.8506,355.0189,6.693988,0.0569084,0.25179931,112.4639,12/08.0/2025,2000,g  9.5,4.0
# From MPC105235
P/2003 T12 (SOHO),e,11.0209,174.5709,219.8031,2.584232,0.2372504,0.77006502,123.9202,12/08.0/2025,2000,g 17.0,4.0
# From MPC 57131
C/2004 B1 (LINEAR),h,02/07.9743/2006,113.9104,273.3391,328.1329,1.000969,1.602994,2000,10.5,2.0
# From MPC 51368
C/2004 C1 (Larsen),e,28.8625,151.9549,315.9683,11.62433,0.0248686,0.62580256,359.9917,03/19.0/2003,2000,g 13.5,2.0
# From MPEC 2022-YN2
P/2004 FY140 (LINEAR),e,2.1629,327.2624,254.3093,4.968552,0.0889937,0.19288058,320.7117,12/08.0/2025,2000,g 12.5,2.0
# From MPC 53304
P/2004 R3 (LINEAR-NEAT),e,12.8048,305.1231,37.0704,4.744936,0.0953583,0.25480857,147.3470,12/08.0/2025,2000,g 14.5,4.0
# From MPC 53465
C/2004 T3 (Siding Spring),e,71.7679,50.3482,259.8513,56166,0.0000001,0.99984142,0.0000,04/04.7959/2003,2000,g  2.5,4.0
# From MPC 75705
P/2004 V5 (LINEAR-Hill),e,19.3314,47.7368,87.1558,8.052578,0.0431322,0.44941954,333.8782,12/08.0/2025,2000,g  8.0,4.0
# From unp
P/2004 V5-A (LINEAR-Hill),e,19.3348,47.7638,87.1207,8.053413,0.0431255,0.44950381,333.8927,12/08.0/2025,2000,g  8.0,4.0
# From MPC 75705
P/2004 V5-B (LINEAR-Hill),e,19.3316,47.7373,87.1603,8.052792,0.0431305,0.44943439,333.8372,12/08.0/2025,2000,g  8.0,4.0
# From MPC 54164
P/2005 E1 (Tubbiolo),e,4.2606,335.4866,193.9592,7.073052,0.0523955,0.37753372,41.9994,12/08.0/2025,2000,g 10.0,4.0
# From MPC 74246
P/2005 L1 (McNaught),e,9.7971,124.3866,165.1823,3.860317,0.1299480,0.27607062,179.5689,12/08.0/2025,2000,g  9.5,4.0
# From MPC 87062
C/2005 L3 (McNaught),e,139.3144,288.7780,46.9692,4161,0.0000037,0.99866023,0.0000,01/14.7345/2008,2000,g  4.0,4.0
# From MPC 75706
P/2005 S2 (Skiff),e,3.1393,161.3272,230.0690,7.981636,0.0437085,0.19824634,309.9073,12/08.0/2025,2000,g  7.5,4.0
# From MPC 73461
P/2005 T3 (Read),e,6.2333,27.6191,7.1657,7.568634,0.0473345,0.17377768,347.8855,12/08.0/2025,2000,g  9.0,4.0
# From MPC 75707
P/2006 HR30 (Siding Spring),e,31.9651,309.7469,117.5274,7.794184,0.0452948,0.84354719,313.0547,12/08.0/2025,2000,g 11.0,4.0
# From MPEC 2022-L66
C/2006 S3 (LONEOS),h,04/16.7655/2012,166.0456,38.5453,140.1545,1.000732,5.118648,2000,2.0,4.0
# From MPC 84315
C/2007 D1 (LINEAR),e,41.5175,170.9936,339.8018,1292,0.0000212,0.99323540,0.0000,06/15.8195/2007,2000,g  3.5,4.0
# From MPEC 2024-GJ3
P/2007 K2 (Gibbs),e,7.5881,188.3258,347.0455,7.397456,0.0489870,0.68691054,339.7127,12/08.0/2025,2000,g 14.0,4.0
# From MPC 73462
P/2007 S1 (Zhao),e,5.9626,141.3217,245.2853,3.819150,0.1320547,0.33770290,153.0349,12/08.0/2025,2000,g 13.0,4.0
# From MPEC 2024-GJ3
C/2007 S2 (Lemmon),e,16.9206,296.1343,210.1473,12.49232,0.0223223,0.55737934,140.6324,12/08.0/2025,2000,g  6.5,4.0
# From MPEC 2024-GJ3
C/2008 E1 (Catalina),e,34.8637,188.8850,270.4134,10.76351,0.0279109,0.55295317,176.2291,12/08.0/2025,2000,g  7.0,4.0
# From MPC 95207
C/2008 S3 (Boattini),h,06/08.8347/2011,162.7445,55.0197,40.1975,1.001797,8.057405,2000,4.0,4.0
# From MPC 75710
P/2008 Y3 (McNaught),e,38.7800,262.8299,238.1813,8.034381,0.0432788,0.44856927,267.9194,12/08.0/2025,2000,g  8.5,4.0
# From MPC 75710
P/2009 B1 (Boattini),e,22.2598,297.1091,129.0236,6.722111,0.0565517,0.63582000,348.4356,12/08.0/2025,2000,g 13.0,4.0
# From MPC 95208
C/2009 F4 (McNaught),e,79.1954,53.5006,260.5039,28100,0.0000002,0.99980508,0.0000,12/25.7727/2011,2000,g  3.0,4.0
# From MPC103843
C/2009 P1 (Garradd),e,106.2330,325.8643,90.4505,11009,0.0000009,0.99986029,0.0000,12/24.5917/2011,2000,g  4.0,4.0
# From MPC 68902
P/2009 Q5 (McNaught),e,40.9486,160.1860,209.2027,7.426965,0.0486953,0.60913158,288.3446,12/08.0/2025,2000,g 10.0,4.0
# From MPC105235
P/2009 WX51 (Catalina),e,9.5983,31.5216,118.2956,3.082718,0.1820972,0.73974191,336.6817,12/08.0/2025,2000,g 19.0,2.0
# From MPC 74247
P/2009 Y2 (Kowalski),e,29.9725,262.0787,172.2714,6.534931,0.0589987,0.63731251,338.8312,12/08.0/2025,2000,g 13.0,4.0
# From MPC 75008
P/2010 C1 (Scotti),e,9.1158,141.5843,2.8796,7.132906,0.0517374,0.26438361,307.3374,12/08.0/2025,2000,g  9.5,4.0
# From MPC 75008
P/2010 D2 (WISE),e,57.1393,319.8794,120.0521,6.713743,0.0566574,0.45157614,327.2121,12/08.0/2025,2000,g 16.0,4.0
# From MPC 72851
P/2010 H2 (Vales),e,14.2784,64.1895,128.0689,3.835139,0.1312298,0.19794728,35.8558,12/08.0/2025,2000,g  6.0,4.0
# From MPC 70361
P/2010 H3 (SOHO),e,23.1415,77.1706,26.0858,3.034688,0.1864373,0.98558114,0.0000,05/25.2470/2026,2000,g 20.0,2.0
# From MPEC 2024-GJ3
P/2010 H4 (Scotti),e,2.3177,44.7485,179.0764,6.619855,0.0578671,0.26737607,329.3599,12/08.0/2025,2000,g 10.5,4.0
# From MPC 74637
P/2010 H5 (Scotti),e,14.0521,24.4114,175.3145,7.168725,0.0513501,0.15628185,295.1220,12/08.0/2025,2000,g 13.0,2.0
# From MPC 84315
P/2010 JC81 (WISE),e,38.7442,30.8360,12.5211,8.103023,0.0427301,0.77789672,227.7399,12/08.0/2025,2000,g  9.0,4.0
# From MPC 83518
C/2010 L3 (Catalina),e,102.6491,38.3259,121.7588,40708,0.0000001,0.99975757,0.0000,11/12.5189/2010,2000,g  4.5,4.0
# From MPC115879
C/2010 S1 (LINEAR),h,05/20.2537/2013,125.4403,93.6724,118.7292,1.000710,5.910354,2000,3.5,4.0
# From MPC 74248
P/2010 T2 (PANSTARRS),e,7.8533,57.7165,349.9006,5.571352,0.0749485,0.32459800,49.1646,12/08.0/2025,2000,g 11.5,4.0
# From MPEC 2023-J95
C/2010 U3 (Boattini),h,02/28.7282/2019,55.5319,42.9943,88.1059,1.000139,8.440544,2000,1.0,4.0
# From MPC 79021
P/2010 UH55 (Spacewatch),e,8.0376,232.8002,225.3667,6.645761,0.0575290,0.56468132,307.7983,12/08.0/2025,2000,g 11.0,4.0
# From MPC 84021
P/2011 C2 (Gibbs),e,10.8978,11.9663,160.3102,7.406565,0.0488966,0.27162454,250.0803,12/08.0/2025,2000,g  9.0,4.0
# From MPC 89309
C/2011 F1 (LINEAR),e,56.3788,85.1981,192.6082,3917,0.0000040,0.99953073,0.0000,01/01.8972/2013,2000,g  5.0,4.0
# From MPC 79866
P/2011 FR143 (Lemmon),e,15.9612,190.8431,349.6114,6.885923,0.0545457,0.45290652,297.2424,12/08.0/2025,2000,g 14.0,2.0
# From MPC106343
C/2011 J2 (LINEAR),h,12/20.2897/2013,122.7866,164.0460,85.4737,1.000278,3.459974,2000,5.5,3.6
# From MPC 82317
P/2011 JB15 (Spacewatch-Boattini),e,19.1266,153.5844,110.6224,7.382140,0.0491395,0.31510504,250.7506,12/08.0/2025,2000,g  9.0,4.0
# From MPEC 2023-J95
C/2011 KP36 (Spacewatch),e,18.9575,173.3991,180.9749,39.39774,0.0039856,0.87498981,13.8858,12/08.0/2025,2000,g  4.5,4.0
# From MPC 87913
P/2011 N1 (ASH),e,35.7835,77.6257,330.5175,6.231695,0.0633570,0.54534661,312.2859,12/08.0/2025,2000,g 11.5,4.0
# From MPEC 2022-ED3
P/2011 P1 (McNaught),e,5.6504,4.2457,349.1439,7.463524,0.0483379,0.32607181,271.0623,12/08.0/2025,2000,g  9.0,4.0
# From MPC107047
C/2011 P2 (PANSTARRS),e,8.9824,203.9237,76.2266,9.765904,0.0322950,0.36526022,180.7106,12/08.0/2025,2000,g  8.5,4.0
# From MPEC 2022-HC2
P/2011 S1 (Gibbs),e,2.6877,218.8978,193.0255,8.599948,0.0390805,0.20055439,161.1564,12/08.0/2025,2000,g  8.0,4.0
# From MPEC 2023-UR6
P/2011 V1 (Boattini),e,7.3823,46.4912,269.5927,3.858112,0.1300594,0.54837552,342.2433,12/08.0/2025,2000,g 15.5,4.0
# From MPC 82718
P/2011 W1 (PANSTARRS),e,3.7158,161.7943,283.0948,4.675488,0.0974908,0.28833163,136.2320,12/08.0/2025,2000,g 11.5,4.0
# From MPC 79342
